IRIDIUM 144             
1 43249U 18030A   25232.87712408  .00000112  00000+0  32796-4 0  9999
2 43249  86.3920  55.9371 0002216  91.8134 268.3316 14.34217662387091
IRIDIUM 149             
1 43250U 18030B   25234.48814157  .00000062  00000+0  14913-4 0  9999
2 43250  86.3920  55.2331 0002243  91.4951 268.6502 14.34217936387347
IRIDIUM 157             
1 43251U 18030C   25232.90249286  .00000034  00000+0  52351-5 0  9998
2 43251  86.3921  55.9434 0002194  84.3133 275.8313 14.34217942387097
IRIDIUM 140             
1 43252U 18030D   25232.92152165  .00000088  00000+0  24235-4 0  9998
2 43252  86.3921  55.9489 0002147  94.2330 265.9112 14.34217872387151
IRIDIUM 145             
1 43253U 18030E   25232.90883622  .00000049  00000+0  10348-4 0  9993
2 43253  86.3921  55.9269 0002466  97.0446 263.1030 14.34218079387082
IRIDIUM 146             
1 43254U 18030F   25234.49448264  .00000075  00000+0  19686-4 0  9992
2 43254  86.3924  55.2766 0002439  97.5211 262.6262 14.34217236387328
IRIDIUM 148             
1 43255U 18030G   25234.46277088  .00000039  00000+0  70129-5 0  9994
2 43255  86.3924  55.3282 0002298  87.4107 272.7352 14.34218129387355
IRIDIUM 142             
1 43256U 18030H   25234.50082662 -.00000095  00000+0 -40941-4 0  9994
2 43256  86.3920  55.2121 0002482  96.9052 263.2426 14.34217213387329
